NORAD_CAT_ID,OBJECT_NAME,OBJECT_TYPE,EPOCH,MEAN_MOTION,ECCENTRICITY,INCLINATION,RA_OF_ASC_NODE,ARG_OF_PERICENTER,MEAN_ANOMALY,BSTAR,MEAN_MOTION_DOT,MEAN_MOTION_DDOT,TLE_LINE0,TLE_LINE1,TLE_LINE2,SEMIMAJOR_AXIS,PERIOD,APOGEE,PERIGEE,DECAYED
52990.0,STARLINK-4286,PAYLOAD,2022-12-30 04:24:02,15.08832099,0.0002319,53.218,296.2942,41.767,318.3498,-2.6441e-06,-3.3e-06,0.0,0 STARLINK-4286,1 52990U 22076E   22364.18336342 -.00000330  00000-0 -26441-5 0  9999,2 52990  53.2180 296.2942 0002319  41.7670 318.3498 15.08832099 26751,6917.905,95.438,541.374,538.165,0.0
52990.0,STARLINK-4286,PAYLOAD,2022-12-30 12:20:58,15.08838077,0.0002273,53.2181,294.8079,43.1788,316.9382,0.00018469,2.652e-05,0.0,0 STARLINK-4286,1 52990U 22076E   22364.51456354  .00002652  00000-0  18469-3 0  9998,2 52990  53.2181 294.8079 0002273  43.1788 316.9382 15.08838077 27278,6917.886,95.438,541.3240000000002,538.179,0.0
52990.0,STARLINK-4286,PAYLOAD,2022-12-31 04:14:48,15.08888844,0.0002523,53.2171,291.8317,37.1569,322.9598,0.0016408,0.00025958,0.0,0 STARLINK-4286,1 52990U 22076E   22365.17695595  .00025958  00000-0  16408-2 0  9997,2 52990  53.2171 291.8317 0002523  37.1569 322.9598 15.08888844 27371,6917.731,95.434,541.341,537.851,0.0
52990.0,STARLINK-4286,PAYLOAD,2022-12-31 12:11:43,15.08889962,0.0002759,53.2171,290.3452,39.1586,320.9605,0.00099068,0.00015536,0.0,0 STARLINK-4286,1 52990U 22076E   22365.50814813  .00015536  00000-0  99068-3 0  9995,2 52990  53.2171 290.3452 0002759  39.1586 320.9605 15.08889962 27422,6917.728,95.434,541.501,537.684,0.0
52990.0,STARLINK-4286,PAYLOAD,2023-01-01 07:16:21,15.08824541,0.0003181,53.217,286.7774,34.9974,325.1227,-0.0002588,-4.404e-05,0.0,0 STARLINK-4286,1 52990U 22076E   23001.30303066 -.00004404  00000-0 -25880-3 0  9999,2 52990  53.2170 286.7774 0003181  34.9974 325.1227 15.08824541 27543,6917.928000000001,95.439,541.993,537.592,0.0
52990.0,STARLINK-4286,PAYLOAD,2023-01-01 12:02:31,15.0882256,0.0002606,53.2166,285.8844,35.957,324.1597,-0.00068489,-0.00011167,0.0,0 STARLINK-4286,1 52990U 22076E   23001.50175101 -.00011167  00000-0 -68489-3 0  9994,2 52990  53.2166 285.8844 0002606  35.9570 324.1597 15.08822560 27100,6917.934,95.439,541.602,537.996,0.0
52990.0,STARLINK-4286,PAYLOAD,2023-01-01 21:34:51,15.08811687,0.0002552,53.2167,284.1009,33.8525,326.263,-8.8471e-05,-1.695e-05,0.0,0 STARLINK-4286,1 52990U 22076E   23001.89920162 -.00001695  00000-0 -88471-4 0  9990,2 52990  53.2167 284.1009 0002552  33.8525 326.2630 15.08811687 27168,6917.967,95.439,541.597,538.066,0.0
52990.0,STARLINK-4286,PAYLOAD,2023-01-02 00:45:37,15.08815447,0.0002501,53.2168,283.5063,33.3275,326.7875,0.0002674,3.967e-05,0.0,0 STARLINK-4286,1 52990U 22076E   23002.03168393  .00003967  00000-0  26740-3 0  9999,2 52990  53.2168 283.5063 0002501  33.3275 326.7875 15.08815447 27651,6917.955,95.439,541.5509999999998,538.09,0.0
52990.0,STARLINK-4286,PAYLOAD,2023-01-02 11:53:19,15.08831146,0.0002542,53.217,281.4247,33.7212,326.3942,0.0006466,0.00010015,0.0,0 STARLINK-4286,1 52990U 22076E   23002.49536807  .00010015  00000-0  64660-3 0  9993,2 52990  53.2170 281.4247 0002542  33.7212 326.3942 15.08831146 27256,6917.906999999997,95.438,541.531,538.014,0.0
52990.0,STARLINK-4286,PAYLOAD,2023-01-03 11:44:06,15.08855216,0.0002576,53.2166,276.9637,34.9912,325.1249,0.00064655,0.00010021,0.0,0 STARLINK-4286,1 52990U 22076E   23003.48896480  .00010021  00000-0  64655-3 0  9990,2 52990  53.2166 276.9637 0002576  34.9912 325.1249 15.08855216 27408,6917.834,95.437,541.481,537.9169999999998,0.0
52990.0,STARLINK-4286,PAYLOAD,2023-01-03 18:05:39,15.08848164,0.0002588,53.217,275.774,44.3464,315.7735,0.000261,3.869e-05,0.0,0 STARLINK-4286,1 52990U 22076E   23003.75392504  .00003869  00000-0  26100-3 0  9993,2 52990  53.2170 275.7740 0002588  44.3464 315.7735 15.08848164 27910,6917.855,95.437,541.511,537.93,0.0
52990.0,STARLINK-4286,PAYLOAD,2023-01-04 00:27:11,15.0884268,0.0002558,53.2182,274.5874,27.4096,332.7031,0.0001314,1.804e-05,0.0,0 STARLINK-4286,1 52990U 22076E   23004.01888604  .00001804  00000-0  13140-3 0  9991,2 52990  53.2182 274.5874 0002558  27.4096 332.7031 15.08842680 27957,6917.871999999999,95.437,541.507,537.9680000000002,0.0
52990.0,STARLINK-4286,PAYLOAD,2023-01-05 03:28:44,15.08877018,0.0002572,53.2165,269.5285,29.7784,330.3354,0.0014053,0.00022171,0.0,0 STARLINK-4286,1 52990U 22076E   23005.14495779  .00022171  00000-0  14053-2 0  9996,2 52990  53.2165 269.5285 0002572  29.7784 330.3354 15.08877018 28128,6917.767,95.435,541.411,537.8530000000002,0.0
52990.0,STARLINK-4286,PAYLOAD,2023-01-05 17:47:12,15.08845547,0.0002435,53.2182,266.856,19.7172,340.3914,0.00026483,3.929999999999999e-05,0.0,0 STARLINK-4286,1 52990U 22076E   23005.74111979  .00003930  00000-0  26483-3 0  9992,2 52990  53.2182 266.8560 0002435  19.7172 340.3914 15.08845547 27743,6917.863,95.437,541.413,538.044,0.0
52990.0,STARLINK-4286,PAYLOAD,2023-01-06 09:41:04,15.08835208,0.000302,53.2162,263.8785,46.6583,313.466,0.0002996,4.482e-05,0.0,0 STARLINK-4286,1 52990U 22076E   23006.40352113  .00004482  00000-0  29960-3 0  9999,2 52990  53.2162 263.8785 0003020  46.6583 313.4660 15.08835208 28319,6917.895,95.438,541.849,537.6709999999998,0.0
52990.0,STARLINK-4286,PAYLOAD,2023-01-07 01:34:56,15.08819341,0.0002327,53.2168,260.9073,46.0234,314.095,0.00025161,3.716e-05,0.0,0 STARLINK-4286,1 52990U 22076E   23007.06593321  .00003716  00000-0  25161-3 0  9998,2 52990  53.2168 260.9073 0002327  46.0234 314.0950 15.08819341 28419,6917.944,95.439,541.418,538.1990000000002,0.0
52990.0,STARLINK-4286,PAYLOAD,2023-01-07 03:10:19,15.08816159,0.0002531,53.2157,260.6077,45.6245,314.4955,-0.00015597,-2.768e-05,0.0,0 STARLINK-4286,1 52990U 22076E   23007.13217402 -.00002768  00000-0 -15597-3 0  9999,2 52990  53.2157 260.6077 0002531  45.6245 314.4955 15.08816159 27953,6917.953,95.439,541.569,538.067,0.0
52990.0,STARLINK-4286,PAYLOAD,2023-01-07 09:31:52,15.08826461,0.0002306,53.2155,259.4187,44.8792,315.2386,7.658199999999999e-05,9.3e-06,0.0,0 STARLINK-4286,1 52990U 22076E   23007.39713461  .00000930  00000-0  76582-4 0  9992,2 52990  53.2155 259.4187 0002306  44.8792 315.2386 15.08826461 27995,6917.922,95.438,541.382,538.191,0.0
52990.0,STARLINK-4286,PAYLOAD,2023-01-08 01:25:43,15.08840578,0.0002251,53.2152,256.4473,49.4773,310.6415,0.00032825,4.94e-05,0.0,0 STARLINK-4286,1 52990U 22076E   23008.05953586  .00004940  00000-0  32825-3 0  9996,2 52990  53.2152 256.4473 0002251  49.4773 310.6415 15.08840578 28567,6917.879,95.438,541.3009999999998,538.186,0.0
52990.0,STARLINK-4286,PAYLOAD,2023-01-08 09:22:39,15.08835104,0.000209,53.2146,254.9594,50.9379,309.1799,0.0002971,4.443e-05,0.0,0 STARLINK-4286,1 52990U 22076E   23008.39073953  .00004443  00000-0  29710-3 0  9991,2 52990  53.2146 254.9594 0002090  50.9379 309.1799 15.08835104 28610,6917.895,95.438,541.206,538.315,0.0
52990.0,STARLINK-4286,PAYLOAD,2023-01-09 10:48:50,15.088382800000002,0.0002137,53.2133,250.2027,56.5902,303.5294,0.00012734,1.739e-05,0.0,0 STARLINK-4286,1 52990U 22076E   23009.45058088  .00001739  00000-0  12734-3 0  9994,2 52990  53.2133 250.2027 0002137  56.5902 303.5294 15.08838280 28304,6917.886,95.438,541.229,538.2719999999998,0.0
52990.0,STARLINK-4286,PAYLOAD,2023-01-09 15:34:59,15.08838317,0.0002061,53.213,249.311,58.3123,301.807,0.00013761,1.902e-05,0.0,0 STARLINK-4286,1 52990U 22076E   23009.64930140  .00001902  00000-0  13761-3 0  9996,2 52990  53.2130 249.3110 0002061  58.3123 301.8070 15.08838317 28803,6917.886,95.438,541.1759999999998,538.325,0.0
52990.0,STARLINK-4286,PAYLOAD,2023-01-09 21:56:32,15.08839815,0.0002171,53.2131,248.1217,59.0172,301.1034,0.0001213,1.643e-05,0.0,0 STARLINK-4286,1 52990U 22076E   23009.91426134  .00001643  00000-0  12130-3 0  9990,2 52990  53.2131 248.1217 0002171  59.0172 301.1034 15.08839815 28372,6917.880999999999,95.438,541.248,538.244,0.0
52990.0,STARLINK-4286,PAYLOAD,2023-01-10 09:04:16,15.08811919,0.0003554,53.2072,246.0403,76.0173,284.1214,-0.00029499,-4.978e-05,0.0,0 STARLINK-4286,1 52990U 22076E   23010.37796596 -.00004978  00000-0 -29499-3 0  9996,2 52990  53.2072 246.0403 0003554  76.0173 284.1214 15.08811919 28911,6917.965999999999,95.439,542.29,537.373,0.0
52990.0,STARLINK-4286,PAYLOAD,2023-01-10 10:39:38,15.08815964,0.0001974,53.2141,245.7431,64.0694,296.0501,-0.00018911,-3.295e-05,0.0,0 STARLINK-4286,1 52990U 22076E   23010.44419870 -.00003295  00000-0 -18911-3 0  9999,2 52990  53.2141 245.7431 0001974  64.0694 296.0501 15.08815964 28458,6917.9540000000015,95.439,541.184,538.453,0.0
52990.0,STARLINK-4286,PAYLOAD,2023-01-10 17:01:10,15.08830564,0.000195,53.2135,244.5521,67.9514,292.1685,4.7969e-06,-2.12e-06,0.0,0 STARLINK-4286,1 52990U 22076E   23010.70915370 -.00000212  00000-0  47969-5 0  9996,2 52990  53.2135 244.5521 0001950  67.9514 292.1685 15.08830564 28964,6917.9090000000015,95.438,541.123,538.425,0.0
52990.0,STARLINK-4286,PAYLOAD,2023-01-11 10:30:24,15.08846115,0.0001882,53.2134,241.2804,70.3242,289.7953,0.00030516,4.573e-05,0.0,0 STARLINK-4286,1 52990U 22076E   23011.43778914  .00004573  00000-0  30516-3 0  9999,2 52990  53.2134 241.2804 0001882  70.3242 289.7953 15.08846115 29073,6917.861999999999,95.437,541.029,538.425,0.0
52990.0,STARLINK-4286,PAYLOAD,2023-01-11 21:38:06,15.08864491,0.0001869,53.213,239.1981,74.3363,285.7835,0.00073358,0.00011414,0.0,0 STARLINK-4286,1 52990U 22076E   23011.90146319  .00011414  00000-0  73358-3 0  9992,2 52990  53.2130 239.1981 0001869  74.3363 285.7835 15.08864491 28671,6917.806,95.436,540.9630000000002,538.378,0.0
52990.0,STARLINK-4286,PAYLOAD,2023-01-12 16:42:44,15.0884141,0.0001716,53.2135,235.6315,65.2701,294.8469,-0.00010721,-1.994e-05,0.0,0 STARLINK-4286,1 52990U 22076E   23012.69634672 -.00001994  00000-0 -10721-3 0  9992,2 52990  53.2135 235.6315 0001716  65.2701 294.8469 15.08841410 29260,6917.876,95.437,540.928,538.554,0.0
